[{"OBJECT_NAME":"STARLINK-32961","OBJECT_ID":"2025-039U","EPOCH":"2026-03-09T05:12:32.311296","MEAN_MOTION":15.27586627,"ECCENTRICITY":0.00014891,"INCLINATION":43.0039,"RA_OF_ASC_NODE":15.5279,"ARG_OF_PERICENTER":260.3089,"MEAN_ANOMALY":99.7595,"EPHEMERIS_TYPE":0,"CLASSIFICATION_TYPE":"U","NORAD_CAT_ID":63122,"ELEMENT_SET_NO":999,"REV_AT_EPOCH":5799,"BSTAR":0.00084262474,"MEAN_MOTION_DOT":0.00023002,"MEAN_MOTION_DDOT":0},{"OBJECT_NAME":"ARIANE 44LP DEB","OBJECT_ID":"1988-109G","EPOCH":"2026-03-08T21:34:00.836256","MEAN_MOTION":3.15098645,"ECCENTRICITY":0.6576716,"INCLINATION":6.8958,"RA_OF_ASC_NODE":351.3106,"ARG_OF_PERICENTER":181.1678,"MEAN_ANOMALY":175.7402,"EPHEMERIS_TYPE":0,"CLASSIFICATION_TYPE":"U","NORAD_CAT_ID":25540,"ELEMENT_SET_NO":999,"REV_AT_EPOCH":27207,"BSTAR":0.0058027757,"MEAN_MOTION_DOT":6.918e-5,"MEAN_MOTION_DDOT":0}]
